T1DES 1 (DRAGOON 1)     
1 64542U 25135Q   26068.31050305  .00014527  00000+0  60518-3 0  9997
2 64542  97.4578 184.7906 0003878 148.7870 211.3598 15.23819655 39702
STARCLOUD-1             
1 66303U 25248L   26067.98149217  .00008636  00000+0  40464-3 0  9994
2 66303  45.4020 297.8511 0006021 202.4241 157.6383 15.20134222 19287
